[{"OBJECT_NAME":"NANOSATC-BR1","OBJECT_ID":"2014-033Q","EPOCH":"2026-03-09T23:35:03.168384","MEAN_MOTION":15.28136801,"ECCENTRICITY":0.00046435,"INCLINATION":98.0845,"RA_OF_ASC_NODE":92.7804,"ARG_OF_PERICENTER":147.6715,"MEAN_ANOMALY":212.4808,"EPHEMERIS_TYPE":0,"CLASSIFICATION_TYPE":"U","NORAD_CAT_ID":40024,"ELEMENT_SET_NO":999,"REV_AT_EPOCH":63881,"BSTAR":0.00074295057,"MEAN_MOTION_DOT":0.00020336,"MEAN_MOTION_DDOT":0},{"OBJECT_NAME":"STARLINK-30398","OBJECT_ID":"2023-138H","EPOCH":"2026-03-09T22:00:01.999584","MEAN_MOTION":15.26736773,"ECCENTRICITY":0.00013891,"INCLINATION":43.0002,"RA_OF_ASC_NODE":233.0642,"ARG_OF_PERICENTER":277.2362,"MEAN_ANOMALY":351.2617,"EPHEMERIS_TYPE":0,"CLASSIFICATION_TYPE":"U","NORAD_CAT_ID":57815,"ELEMENT_SET_NO":999,"REV_AT_EPOCH":578,"BSTAR":0.0034335075,"MEAN_MOTION_DOT":0.00092999,"MEAN_MOTION_DDOT":0}]
